[
    {
        "Altitude(m)": 717287.8623569238,
        "Argument of Periapsis(deg)": 0.011390121186627068,
        "Eccentricity": 0.0,
        "Inclination(deg)": 45.0,
        "Latitude(deg)": -43.70884518304428,
        "Longitude(deg)": -158.8237177730296,
        "Mean Anomaly(deg)": 256.9877166474808,
        "RAAN(deg)": 49.9892480585418,
        "Satellite Name": "Constellation 1 235",
        "Satellite Number": 235,
        "Semi-Major Axis(m)": 7083131.272910544,
        "Time(s)": 190
    },
    {
        "Altitude(m)": 717293.3354763923,
        "Argument of Periapsis(deg)": 0.011450069192872472,
        "Eccentricity": 0.0,
        "Inclination(deg)": 45.0,
        "Latitude(deg)": -43.72210718165894,
        "Longitude(deg)": -158.74628121219456,
        "Mean Anomaly(deg)": 257.04841778773067,
        "RAAN(deg)": 49.98919146937622,
        "Satellite Name": "Constellation 1 235",
        "Satellite Number": 235,
        "Semi-Major Axis(m)": 7083131.272910544,
        "Time(s)": 191
    },
    {
        "Altitude(m)": 717298.7843654263,
        "Argument of Periapsis(deg)": 0.01151001719911788,
        "Eccentricity": 0.0,
        "Inclination(deg)": 45.0,
        "Latitude(deg)": -43.73531096197865,
        "Longitude(deg)": -158.66880882888245,
        "Mean Anomaly(deg)": 257.1091189279806,
        "RAAN(deg)": 49.98913488021066,
        "Satellite Name": "Constellation 1 235",
        "Satellite Number": 235,
        "Semi-Major Axis(m)": 7083131.272910544,
        "Time(s)": 192
    },
    {
        "Altitude(m)": 717304.2090039325,
        "Argument of Periapsis(deg)": 0.011569965205363285,
        "Eccentricity": 0.0,
        "Inclination(deg)": 45.0,
        "Latitude(deg)": -43.74845647224409,
        "Longitude(deg)": -158.5913009166613,
        "Mean Anomaly(deg)": 257.16982006823054,
        "RAAN(deg)": 49.98907829104509,
        "Satellite Name": "Constellation 1 235",
        "Satellite Number": 235,
        "Semi-Major Axis(m)": 7083131.272910544,
        "Time(s)": 193
    },
    {
        "Altitude(m)": 717309.6093719156,
        "Argument of Periapsis(deg)": 0.01162991321160869,
        "Eccentricity": 0.0,
        "Inclination(deg)": 45.0,
        "Latitude(deg)": -43.76154366086772,
        "Longitude(deg)": -158.51375726533863,
        "Mean Anomaly(deg)": 257.2305212084804,
        "RAAN(deg)": 49.98902170187952,
        "Satellite Name": "Constellation 1 235",
        "Satellite Number": 235,
        "Semi-Major Axis(m)": 7083131.272910544,
        "Time(s)": 194
    },
    {
        "Altitude(m)": 717314.9854494701,
        "Argument of Periapsis(deg)": 0.011689861217854095,
        "Eccentricity": 0.0,
        "Inclination(deg)": 45.0,
        "Latitude(deg)": -43.7745724764332,
        "Longitude(deg)": -158.4361781695429,
        "Mean Anomaly(deg)": 257.2912223487303,
        "RAAN(deg)": 49.98896511271395,
        "Satellite Name": "Constellation 1 235",
        "Satellite Number": 235,
        "Semi-Major Axis(m)": 7083131.272910544,
        "Time(s)": 195
    },
    {
        "Altitude(m)": 717320.3372167698,
        "Argument of Periapsis(deg)": 0.0117498092240995,
        "Eccentricity": 0.0,
        "Inclination(deg)": 45.0,
        "Latitude(deg)": -43.7875428676974,
        "Longitude(deg)": -158.3585637563341,
        "Mean Anomaly(deg)": 257.3519234889802,
        "RAAN(deg)": 49.988908523548375,
        "Satellite Name": "Constellation 1 235",
        "Satellite Number": 235,
        "Semi-Major Axis(m)": 7083131.272910544,
        "Time(s)": 196
    },
    {
        "Altitude(m)": 717325.6646540886,
        "Argument of Periapsis(deg)": 0.011809757230344905,
        "Eccentricity": 0.0,
        "Inclination(deg)": 45.0,
        "Latitude(deg)": -43.80045478359079,
        "Longitude(deg)": -158.28091415330059,
        "Mean Anomaly(deg)": 257.41262462923015,
        "RAAN(deg)": 49.9888519343828,
        "Satellite Name": "Constellation 1 235",
        "Satellite Number": 235,
        "Semi-Major Axis(m)": 7083131.272910544,
        "Time(s)": 197
    },
    {
        "Altitude(m)": 717330.9677417806,
        "Argument of Periapsis(deg)": 0.011869705236590313,
        "Eccentricity": 0.0,
        "Inclination(deg)": 45.0,
        "Latitude(deg)": -43.813308173218616,
        "Longitude(deg)": -158.20322948855681,
        "Mean Anomaly(deg)": 257.47332576947997,
        "RAAN(deg)": 49.98879534521724,
        "Satellite Name": "Constellation 1 235",
        "Satellite Number": 235,
        "Semi-Major Axis(m)": 7083131.272910544,
        "Time(s)": 198
    },
    {
        "Altitude(m)": 717336.2464602976,
        "Argument of Periapsis(deg)": 0.011929653242835719,
        "Eccentricity": 0.0,
        "Inclination(deg)": 45.0,
        "Latitude(deg)": -43.826102985861546,
        "Longitude(deg)": -158.1255098907435,
        "Mean Anomaly(deg)": 257.53402690972985,
        "RAAN(deg)": 49.98873875605167,
        "Satellite Name": "Constellation 1 235",
        "Satellite Number": 235,
        "Semi-Major Axis(m)": 7083131.272910544,
        "Time(s)": 199
    }
]